{"type": "FeatureCollection", "features": [{"type": "Feature", "geometry": {"type": "Point", "coordinates": [151.0106, -33.811]}, "properties": {"suburb": "PARRAMATTA", "sales": 1234, "median_price": 720000}}, {"type": "Feature", "geometry": {"type": "Point", "coordinates": [152.9099, -31.4342]}, "properties": {"suburb": "PORT MACQUARIE", "sales": 1231, "median_price": 778500}}, {"type": "Feature", "geometry": {"type": "Point", "coordinates": [148.6038, -32.2473]}, "properties": {"suburb": "DUBBO", "sales": 1149, "median_price": 560000}}, {"type": "Feature", "geometry": {"type": "Point", "coordinates": [150.812, -33.9331]}, "properties": {"suburb": "AUSTRAL", "sales": 1147, "median_price": 650000}}, {"type": "Feature", "geometry": {"type": "Point", "coordinates": [150.906, -33.7715]}, "properties": {"suburb": "BLACKTOWN", "sales": 1145, "median_price": 845000}}, {"type": "Feature", "geometry": {"type": "Point", "coordinates": [149.0963, -33.2831]}, "properties": {"suburb": "ORANGE", "sales": 1139, "median_price": 640000}}, {"type": "Feature", "geometry": {"type": "Point", "coordinates": [151.0101, -33.7313]}, "properties": {"suburb": "CASTLE HILL", "sales": 1084, "median_price": 1400000}}, {"type": "Feature", "geometry": {"type": "Point", "coordinates": [151.0323, -33.9186]}, "properties": {"suburb": "BANKSTOWN", "sales": 1015, "median_price": 559450}}, {"type": "Feature", "geometry": {"type": "Point", "coordinates": [150.9871, -33.836]}, "properties": {"suburb": "MERRYLANDS", "sales": 983, "median_price": 707000}}, {"type": "Feature", "geometry": {"type": "Point", "coordinates": [151.2077, -33.9073]}, "properties": {"suburb": "ZETLAND", "sales": 964, "median_price": 1080000}}, {"type": "Feature", "geometry": {"type": "Point", "coordinates": [150.9155, -33.6821]}, "properties": {"suburb": "ROUSE HILL", "sales": 946, "median_price": 745000}}, {"type": "Feature", "geometry": {"type": "Point", "coordinates": [150.9004, -33.6466]}, "properties": {"suburb": "BOX HILL", "sales": 870, "median_price": 900000}}, {"type": "Feature", "geometry": {"type": "Point", "coordinates": [150.9182, -33.9242]}, "properties": {"suburb": "LIVERPOOL", "sales": 852, "median_price": 520000}}, {"type": "Feature", "geometry": {"type": "Point", "coordinates": [150.7267, -34.0061]}, "properties": {"suburb": "ORAN PARK", "sales": 834, "median_price": 900000}}, {"type": "Feature", "geometry": {"type": "Point", "coordinates": [150.8931, -34.4248]}, "properties": {"suburb": "WOLLONGONG", "sales": 830, "median_price": 750000}}, {"type": "Feature", "geometry": {"type": "Point", "coordinates": [149.7184, -34.7546]}, "properties": {"suburb": "GOULBURN", "sales": 819, "median_price": 567500}}, {"type": "Feature", "geometry": {"type": "Point", "coordinates": [151.0471, -33.8613]}, "properties": {"suburb": "LIDCOMBE", "sales": 816, "median_price": 850000}}, {"type": "Feature", "geometry": {"type": "Point", "coordinates": [151.1059, -33.8107]}, "properties": {"suburb": "RYDE", "sales": 789, "median_price": 855000}}, {"type": "Feature", "geometry": {"type": "Point", "coordinates": [151.071, -33.7732]}, "properties": {"suburb": "EPPING", "sales": 763, "median_price": 865000}}, {"type": "Feature", "geometry": {"type": "Point", "coordinates": [151.2403, -33.8285]}, "properties": {"suburb": "MOSMAN", "sales": 738, "median_price": 2225000}}, {"type": "Feature", "geometry": {"type": "Point", "coordinates": [150.8321, -33.6978]}, "properties": {"suburb": "MARSDEN PARK", "sales": 721, "median_price": 896000}}, {"type": "Feature", "geometry": {"type": "Point", "coordinates": [150.6944, -33.7505]}, "properties": {"suburb": "PENRITH", "sales": 716, "median_price": 611100}}, {"type": "Feature", "geometry": {"type": "Point", "coordinates": [151.206, -33.8721]}, "properties": {"suburb": "SYDNEY", "sales": 708, "median_price": 1260000}}, {"type": "Feature", "geometry": {"type": "Point", "coordinates": [151.0396, -33.7696]}, "properties": {"suburb": "CARLINGFORD", "sales": 691, "median_price": 800000}}, {"type": "Feature", "geometry": {"type": "Point", "coordinates": [153.1128, -30.2972]}, "properties": {"suburb": "COFFS HARBOUR", "sales": 684, "median_price": 699000}}, {"type": "Feature", "geometry": {"type": "Point", "coordinates": [151.0993, -33.96]}, "properties": {"suburb": "HURSTVILLE", "sales": 683, "median_price": 790000}}, {"type": "Feature", "geometry": {"type": "Point", "coordinates": [150.7997, -33.9691]}, "properties": {"suburb": "LEPPINGTON", "sales": 674, "median_price": 854000}}, {"type": "Feature", "geometry": {"type": "Point", "coordinates": [151.2901, -33.7552]}, "properties": {"suburb": "DEE WHY", "sales": 655, "median_price": 965000}}, {"type": "Feature", "geometry": {"type": "Point", "coordinates": [151.1256, -33.7784]}, "properties": {"suburb": "MACQUARIE PARK", "sales": 647, "median_price": 910000}}, {"type": "Feature", "geometry": {"type": "Point", "coordinates": [151.6667, -30.515]}, "properties": {"suburb": "ARMIDALE", "sales": 641, "median_price": 470000}}, {"type": "Feature", "geometry": {"type": "Point", "coordinates": [151.1563, -33.91]}, "properties": {"suburb": "MARRICKVILLE", "sales": 640, "median_price": 1210000}}, {"type": "Feature", "geometry": {"type": "Point", "coordinates": [151.0217, -33.8642]}, "properties": {"suburb": "AUBURN", "sales": 622, "median_price": 645000}}, {"type": "Feature", "geometry": {"type": "Point", "coordinates": [151.1522, -34.0581]}, "properties": {"suburb": "CRONULLA", "sales": 607, "median_price": 1250000}}, {"type": "Feature", "geometry": {"type": "Point", "coordinates": [150.8703, -33.6966]}, "properties": {"suburb": "SCHOFIELDS", "sales": 601, "median_price": 942000}}, {"type": "Feature", "geometry": {"type": "Point", "coordinates": [151.1358, -33.9663]}, "properties": {"suburb": "KOGARAH", "sales": 599, "median_price": 760000}}, {"type": "Feature", "geometry": {"type": "Point", "coordinates": [151.2383, -33.9106]}, "properties": {"suburb": "RANDWICK", "sales": 594, "median_price": 1420000}}, {"type": "Feature", "geometry": {"type": "Point", "coordinates": [150.774, -33.7668]}, "properties": {"suburb": "ST MARYS", "sales": 592, "median_price": 640000}}, {"type": "Feature", "geometry": {"type": "Point", "coordinates": [151.2116, -33.8879]}, "properties": {"suburb": "SURRY HILLS", "sales": 590, "median_price": 1200000}}, {"type": "Feature", "geometry": {"type": "Point", "coordinates": [150.9905, -33.7595]}, "properties": {"suburb": "BAULKHAM HILLS", "sales": 589, "median_price": 1630000}}, {"type": "Feature", "geometry": {"type": "Point", "coordinates": [150.9547, -33.6901]}, "properties": {"suburb": "NORTH KELLYVILLE", "sales": 587, "median_price": 1320000}}, {"type": "Feature", "geometry": {"type": "Point", "coordinates": [151.186, -33.9331]}, "properties": {"suburb": "MASCOT", "sales": 583, "median_price": 850000}}, {"type": "Feature", "geometry": {"type": "Point", "coordinates": [151.2412, -33.9463]}, "properties": {"suburb": "MAROUBRA", "sales": 555, "median_price": 1660000}}, {"type": "Feature", "geometry": {"type": "Point", "coordinates": [151.1024, -33.9148]}, "properties": {"suburb": "CAMPSIE", "sales": 541, "median_price": 688000}}, {"type": "Feature", "geometry": {"type": "Point", "coordinates": [141.4427, -31.9586]}, "properties": {"suburb": "BROKEN HILL", "sales": 539, "median_price": 175000}}, {"type": "Feature", "geometry": {"type": "Point", "coordinates": [150.8125, -34.0674]}, "properties": {"suburb": "CAMPBELLTOWN", "sales": 530, "median_price": 700000}}, {"type": "Feature", "geometry": {"type": "Point", "coordinates": [151.0784, -33.8248]}, "properties": {"suburb": "WENTWORTH POINT", "sales": 530, "median_price": 750000}}, {"type": "Feature", "geometry": {"type": "Point", "coordinates": [151.0982, -33.6972]}, "properties": {"suburb": "HORNSBY", "sales": 520, "median_price": 752000}}, {"type": "Feature", "geometry": {"type": "Point", "coordinates": [151.1023, -34.0341]}, "properties": {"suburb": "MIRANDA", "sales": 516, "median_price": 1020000}}, {"type": "Feature", "geometry": {"type": "Point", "coordinates": [150.9608, -33.704]}, "properties": {"suburb": "KELLYVILLE", "sales": 511, "median_price": 1800000}}, {"type": "Feature", "geometry": {"type": "Point", "coordinates": [150.8843, -33.6911]}, "properties": {"suburb": "TALLAWONG", "sales": 502, "median_price": 838000}}, {"type": "Feature", "geometry": {"type": "Point", "coordinates": [151.1257, -33.8879]}, "properties": {"suburb": "ASHFIELD", "sales": 501, "median_price": 907000}}, {"type": "Feature", "geometry": {"type": "Point", "coordinates": [150.7805, -34.013]}, "properties": {"suburb": "GLEDSWOOD HILLS", "sales": 500, "median_price": 857000}}, {"type": "Feature", "geometry": {"type": "Point", "coordinates": [151.0822, -33.8657]}, "properties": {"suburb": "HOMEBUSH", "sales": 499, "median_price": 700000}}, {"type": "Feature", "geometry": {"type": "Point", "coordinates": [150.6725, -33.7847]}, "properties": {"suburb": "GLENMORE PARK", "sales": 495, "median_price": 995000}}, {"type": "Feature", "geometry": {"type": "Point", "coordinates": [151.3474, -32.6787]}, "properties": {"suburb": "NORTH ROTHBURY", "sales": 483, "median_price": 350000}}, {"type": "Feature", "geometry": {"type": "Point", "coordinates": [150.9007, -33.6307]}, "properties": {"suburb": "GABLES", "sales": 477, "median_price": 1040000}}, {"type": "Feature", "geometry": {"type": "Point", "coordinates": [151.0878, -33.8287]}, "properties": {"suburb": "RHODES", "sales": 476, "median_price": 1020000}}, {"type": "Feature", "geometry": {"type": "Point", "coordinates": [152.5116, -32.1805]}, "properties": {"suburb": "FORSTER", "sales": 475, "median_price": 700000}}, {"type": "Feature", "geometry": {"type": "Point", "coordinates": [151.0853, -33.8818]}, "properties": {"suburb": "STRATHFIELD", "sales": 474, "median_price": 1000000}}, {"type": "Feature", "geometry": {"type": "Point", "coordinates": [151.1886, -33.7946]}, "properties": {"suburb": "CHATSWOOD", "sales": 463, "median_price": 1640000}}, {"type": "Feature", "geometry": {"type": "Point", "coordinates": [151.125, -34.0354]}, "properties": {"suburb": "CARINGBAH", "sales": 462, "median_price": 1070000}}, {"type": "Feature", "geometry": {"type": "Point", "coordinates": [146.0472, -34.288]}, "properties": {"suburb": "GRIFFITH", "sales": 459, "median_price": 500000}}, {"type": "Feature", "geometry": {"type": "Point", "coordinates": [150.8852, -33.7265]}, "properties": {"suburb": "QUAKERS HILL", "sales": 455, "median_price": 1053000}}, {"type": "Feature", "geometry": {"type": "Point", "coordinates": [150.7502, -34.103]}, "properties": {"suburb": "MENANGLE PARK", "sales": 445, "median_price": 540000}}, {"type": "Feature", "geometry": {"type": "Point", "coordinates": [151.2909, -33.8043]}, "properties": {"suburb": "MANLY", "sales": 436, "median_price": 2230000}}, {"type": "Feature", "geometry": {"type": "Point", "coordinates": [151.5277, -32.7645]}, "properties": {"suburb": "GILLIESTON HEIGHTS", "sales": 432, "median_price": 340000}}, {"type": "Feature", "geometry": {"type": "Point", "coordinates": [151.3569, -32.832]}, "properties": {"suburb": "CESSNOCK", "sales": 427, "median_price": 601000}}, {"type": "Feature", "geometry": {"type": "Point", "coordinates": [151.2494, -33.894]}, "properties": {"suburb": "BONDI JUNCTION", "sales": 427, "median_price": 1820000}}, {"type": "Feature", "geometry": {"type": "Point", "coordinates": [149.2169, -35.4338]}, "properties": {"suburb": "GOOGONG", "sales": 425, "median_price": 715000}}, {"type": "Feature", "geometry": {"type": "Point", "coordinates": [151.1888, -33.9123]}, "properties": {"suburb": "ALEXANDRIA", "sales": 422, "median_price": 1110000}}, {"type": "Feature", "geometry": {"type": "Point", "coordinates": [150.8169, -33.7676]}, "properties": {"suburb": "MOUNT DRUITT", "sales": 421, "median_price": 565000}}, {"type": "Feature", "geometry": {"type": "Point", "coordinates": [150.8048, -33.6964]}, "properties": {"suburb": "MELONBA", "sales": 421, "median_price": 1150000}}, {"type": "Feature", "geometry": {"type": "Point", "coordinates": [150.9846, -33.8537]}, "properties": {"suburb": "GUILDFORD", "sales": 416, "median_price": 900000}}, {"type": "Feature", "geometry": {"type": "Point", "coordinates": [151.1546, -33.883]}, "properties": {"suburb": "LEICHHARDT", "sales": 416, "median_price": 1680000}}, {"type": "Feature", "geometry": {"type": "Point", "coordinates": [151.0065, -33.8353]}, "properties": {"suburb": "GRANVILLE", "sales": 415, "median_price": 597500}}, {"type": "Feature", "geometry": {"type": "Point", "coordinates": [150.9869, -33.8086]}, "properties": {"suburb": "WESTMEAD", "sales": 415, "median_price": 581000}}, {"type": "Feature", "geometry": {"type": "Point", "coordinates": [150.3735, -34.5472]}, "properties": {"suburb": "MOSS VALE", "sales": 412, "median_price": 715000}}, {"type": "Feature", "geometry": {"type": "Point", "coordinates": [151.2073, -33.902]}, "properties": {"suburb": "WATERLOO", "sales": 411, "median_price": 940000}}, {"type": "Feature", "geometry": {"type": "Point", "coordinates": [151.2069, -33.8954]}, "properties": {"suburb": "REDFERN", "sales": 408, "median_price": 1460000}}, {"type": "Feature", "geometry": {"type": "Point", "coordinates": [150.8888, -32.2633]}, "properties": {"suburb": "MUSWELLBROOK", "sales": 407, "median_price": 480000}}, {"type": "Feature", "geometry": {"type": "Point", "coordinates": [150.861, -33.6797]}, "properties": {"suburb": "RIVERSTONE", "sales": 402, "median_price": 950000}}, {"type": "Feature", "geometry": {"type": "Point", "coordinates": [144.7556, -36.1127]}, "properties": {"suburb": "MOAMA", "sales": 402, "median_price": 396000}}, {"type": "Feature", "geometry": {"type": "Point", "coordinates": [151.1725, -33.7191]}, "properties": {"suburb": "ST IVES", "sales": 397, "median_price": 2640000}}, {"type": "Feature", "geometry": {"type": "Point", "coordinates": [151.1387, -33.9024]}, "properties": {"suburb": "DULWICH HILL", "sales": 396, "median_price": 1010000}}, {"type": "Feature", "geometry": {"type": "Point", "coordinates": [153.5403, -28.214]}, "properties": {"suburb": "BANORA POINT", "sales": 394, "median_price": 940000}}, {"type": "Feature", "geometry": {"type": "Point", "coordinates": [146.9429, -36.0442]}, "properties": {"suburb": "LAVINGTON", "sales": 391, "median_price": 455000}}, {"type": "Feature", "geometry": {"type": "Point", "coordinates": [150.9503, -33.7873]}, "properties": {"suburb": "TOONGABBIE", "sales": 391, "median_price": 776010}}, {"type": "Feature", "geometry": {"type": "Point", "coordinates": [151.2145, -33.8783]}, "properties": {"suburb": "DARLINGHURST", "sales": 391, "median_price": 1157500}}, {"type": "Feature", "geometry": {"type": "Point", "coordinates": [151.2069, -33.8389]}, "properties": {"suburb": "NORTH SYDNEY", "sales": 390, "median_price": 1390000}}, {"type": "Feature", "geometry": {"type": "Point", "coordinates": [151.7748, -32.9267]}, "properties": {"suburb": "NEWCASTLE", "sales": 387, "median_price": 900000}}, {"type": "Feature", "geometry": {"type": "Point", "coordinates": [150.8646, -33.9978]}, "properties": {"suburb": "INGLEBURN", "sales": 381, "median_price": 840000}}, {"type": "Feature", "geometry": {"type": "Point", "coordinates": [151.0856, -33.8108]}, "properties": {"suburb": "WEST RYDE", "sales": 378, "median_price": 916300}}, {"type": "Feature", "geometry": {"type": "Point", "coordinates": [151.314, -33.5215]}, "properties": {"suburb": "UMINA BEACH", "sales": 378, "median_price": 1050000}}, {"type": "Feature", "geometry": {"type": "Point", "coordinates": [150.7539, -33.7575]}, "properties": {"suburb": "WERRINGTON", "sales": 377, "median_price": 524459}}, {"type": "Feature", "geometry": {"type": "Point", "coordinates": [152.4599, -31.9142]}, "properties": {"suburb": "TAREE", "sales": 377, "median_price": 470000}}, {"type": "Feature", "geometry": {"type": "Point", "coordinates": [151.0577, -34.0318]}, "properties": {"suburb": "SUTHERLAND", "sales": 376, "median_price": 780000}}, {"type": "Feature", "geometry": {"type": "Point", "coordinates": [151.1665, -33.8063]}, "properties": {"suburb": "LANE COVE NORTH", "sales": 367, "median_price": 938000}}, {"type": "Feature", "geometry": {"type": "Point", "coordinates": [151.0829, -33.7923]}, "properties": {"suburb": "EASTWOOD", "sales": 367, "median_price": 2160000}}, {"type": "Feature", "geometry": {"type": "Point", "coordinates": [150.9695, -33.8073]}, "properties": {"suburb": "WENTWORTHVILLE", "sales": 365, "median_price": 635000}}, {"type": "Feature", "geometry": {"type": "Point", "coordinates": [151.2014, -33.8598]}, "properties": {"suburb": "BARANGAROO", "sales": 364, "median_price": 3350000}}, {"type": "Feature", "geometry": {"type": "Point", "coordinates": [150.6964, -34.2404]}, "properties": {"suburb": "WILTON", "sales": 360, "median_price": 670000}}, {"type": "Feature", "geometry": {"type": "Point", "coordinates": [151.2287, -33.8847]}, "properties": {"suburb": "PADDINGTON", "sales": 354, "median_price": 2775000}}, {"type": "Feature", "geometry": {"type": "Point", "coordinates": [151.205, -33.9184]}, "properties": {"suburb": "ROSEBERY", "sales": 354, "median_price": 1000000}}, {"type": "Feature", "geometry": {"type": "Point", "coordinates": [150.953, -33.8297]}, "properties": {"suburb": "GREYSTANES", "sales": 353, "median_price": 1288888}}, {"type": "Feature", "geometry": {"type": "Point", "coordinates": [153.5446, -28.174]}, "properties": {"suburb": "TWEED HEADS", "sales": 353, "median_price": 909000}}, {"type": "Feature", "geometry": {"type": "Point", "coordinates": [152.8344, -31.4568]}, "properties": {"suburb": "THRUMSTER", "sales": 353, "median_price": 445000}}, {"type": "Feature", "geometry": {"type": "Point", "coordinates": [150.4181, -34.4768]}, "properties": {"suburb": "BOWRAL", "sales": 351, "median_price": 1450000}}, {"type": "Feature", "geometry": {"type": "Point", "coordinates": [151.6366, -32.7506]}, "properties": {"suburb": "CHISHOLM", "sales": 350, "median_price": 547320}}, {"type": "Feature", "geometry": {"type": "Point", "coordinates": [151.1149, -33.9559]}, "properties": {"suburb": "BEXLEY", "sales": 349, "median_price": 1145000}}, {"type": "Feature", "geometry": {"type": "Point", "coordinates": [151.0605, -33.9048]}, "properties": {"suburb": "GREENACRE", "sales": 347, "median_price": 1300000}}, {"type": "Feature", "geometry": {"type": "Point", "coordinates": [151.6927, -32.9651]}, "properties": {"suburb": "CHARLESTOWN", "sales": 346, "median_price": 830000}}, {"type": "Feature", "geometry": {"type": "Point", "coordinates": [151.1395, -33.952]}, "properties": {"suburb": "ROCKDALE", "sales": 346, "median_price": 740000}}, {"type": "Feature", "geometry": {"type": "Point", "coordinates": [151.254, -33.9169]}, "properties": {"suburb": "COOGEE", "sales": 346, "median_price": 1671000}}, {"type": "Feature", "geometry": {"type": "Point", "coordinates": [146.9935, -36.0445]}, "properties": {"suburb": "THURGOONA", "sales": 346, "median_price": 580000}}, {"type": "Feature", "geometry": {"type": "Point", "coordinates": [150.8623, -33.9606]}, "properties": {"suburb": "EDMONDSON PARK", "sales": 344, "median_price": 950000}}, {"type": "Feature", "geometry": {"type": "Point", "coordinates": [151.5271, -32.7146]}, "properties": {"suburb": "RUTHERFORD", "sales": 344, "median_price": 670000}}, {"type": "Feature", "geometry": {"type": "Point", "coordinates": [151.1768, -33.8984]}, "properties": {"suburb": "NEWTOWN", "sales": 342, "median_price": 1465000}}, {"type": "Feature", "geometry": {"type": "Point", "coordinates": [150.778, -34.491]}, "properties": {"suburb": "HORSLEY", "sales": 341, "median_price": 589000}}, {"type": "Feature", "geometry": {"type": "Point", "coordinates": [151.0191, -34.0639]}, "properties": {"suburb": "ENGADINE", "sales": 341, "median_price": 1275000}}, {"type": "Feature", "geometry": {"type": "Point", "coordinates": [150.9345, -33.7752]}, "properties": {"suburb": "SEVEN HILLS", "sales": 336, "median_price": 1086000}}, {"type": "Feature", "geometry": {"type": "Point", "coordinates": [151.2169, -33.8353]}, "properties": {"suburb": "NEUTRAL BAY", "sales": 335, "median_price": 1291000}}, {"type": "Feature", "geometry": {"type": "Point", "coordinates": [151.052, -33.9313]}, "properties": {"suburb": "PUNCHBOWL", "sales": 335, "median_price": 916000}}, {"type": "Feature", "geometry": {"type": "Point", "coordinates": [149.5886, -32.591]}, "properties": {"suburb": "MUDGEE", "sales": 335, "median_price": 650000}}, {"type": "Feature", "geometry": {"type": "Point", "coordinates": [151.0774, -33.9229]}, "properties": {"suburb": "LAKEMBA", "sales": 334, "median_price": 465000}}, {"type": "Feature", "geometry": {"type": "Point", "coordinates": [150.6773, -34.015]}, "properties": {"suburb": "COBBITTY", "sales": 334, "median_price": 670900}}, {"type": "Feature", "geometry": {"type": "Point", "coordinates": [151.3403, -33.4226]}, "properties": {"suburb": "GOSFORD", "sales": 333, "median_price": 575000}}, {"type": "Feature", "geometry": {"type": "Point", "coordinates": [153.3222, -28.8239]}, "properties": {"suburb": "GOONELLABAH", "sales": 331, "median_price": 615000}}, {"type": "Feature", "geometry": {"type": "Point", "coordinates": [151.1259, -33.7143]}, "properties": {"suburb": "WAHROONGA", "sales": 326, "median_price": 2300000}}, {"type": "Feature", "geometry": {"type": "Point", "coordinates": [150.2589, -30.9897]}, "properties": {"suburb": "GUNNEDAH", "sales": 326, "median_price": 445000}}, {"type": "Feature", "geometry": {"type": "Point", "coordinates": [151.1031, -33.8802]}, "properties": {"suburb": "BURWOOD", "sales": 324, "median_price": 1050000}}, {"type": "Feature", "geometry": {"type": "Point", "coordinates": [151.2537, -33.8822]}, "properties": {"suburb": "BELLEVUE HILL", "sales": 316, "median_price": 2910000}}, {"type": "Feature", "geometry": {"type": "Point", "coordinates": [150.938, -33.8956]}, "properties": {"suburb": "CABRAMATTA", "sales": 316, "median_price": 495000}}, {"type": "Feature", "geometry": {"type": "Point", "coordinates": [151.2236, -33.8271]}, "properties": {"suburb": "CREMORNE", "sales": 316, "median_price": 1500000}}, {"type": "Feature", "geometry": {"type": "Point", "coordinates": [148.1745, -33.1375]}, "properties": {"suburb": "PARKES", "sales": 314, "median_price": 435000}}, {"type": "Feature", "geometry": {"type": "Point", "coordinates": [151.1997, -33.9472]}, "properties": {"suburb": "BOTANY", "sales": 310, "median_price": 1050000}}, {"type": "Feature", "geometry": {"type": "Point", "coordinates": [151.6659, -32.9029]}, "properties": {"suburb": "WALLSEND", "sales": 307, "median_price": 725000}}, {"type": "Feature", "geometry": {"type": "Point", "coordinates": [151.27, -33.89]}, "properties": {"suburb": "BONDI BEACH", "sales": 306, "median_price": 1886000}}, {"type": "Feature", "geometry": {"type": "Point", "coordinates": [150.7299, -33.7239]}, "properties": {"suburb": "JORDAN SPRINGS", "sales": 306, "median_price": 920000}}, {"type": "Feature", "geometry": {"type": "Point", "coordinates": [151.1843, -33.9024]}, "properties": {"suburb": "ERSKINEVILLE", "sales": 305, "median_price": 1200000}}, {"type": "Feature", "geometry": {"type": "Point", "coordinates": [151.7385, -32.8989]}, "properties": {"suburb": "MAYFIELD", "sales": 304, "median_price": 868500}}, {"type": "Feature", "geometry": {"type": "Point", "coordinates": [150.9555, -33.8685]}, "properties": {"suburb": "FAIRFIELD", "sales": 302, "median_price": 770000}}, {"type": "Feature", "geometry": {"type": "Point", "coordinates": [150.7203, -33.761]}, "properties": {"suburb": "KINGSWOOD", "sales": 302, "median_price": 685000}}, {"type": "Feature", "geometry": {"type": "Point", "coordinates": [151.7422, -32.7641]}, "properties": {"suburb": "RAYMOND TERRACE", "sales": 300, "median_price": 620000}}, {"type": "Feature", "geometry": {"type": "Point", "coordinates": [150.9266, -33.9398]}, "properties": {"suburb": "MOOREBANK", "sales": 296, "median_price": 1200000}}, {"type": "Feature", "geometry": {"type": "Point", "coordinates": [152.9331, -29.6872]}, "properties": {"suburb": "GRAFTON", "sales": 296, "median_price": 468000}}, {"type": "Feature", "geometry": {"type": "Point", "coordinates": [151.8675, -32.7415]}, "properties": {"suburb": "MEDOWIE", "sales": 296, "median_price": 760000}}, {"type": "Feature", "geometry": {"type": "Point", "coordinates": [150.5934, -34.2231]}, "properties": {"suburb": "TAHMOOR", "sales": 293, "median_price": 820000}}, {"type": "Feature", "geometry": {"type": "Point", "coordinates": [151.1112, -29.7737]}, "properties": {"suburb": "INVERELL", "sales": 292, "median_price": 380000}}, {"type": "Feature", "geometry": {"type": "Point", "coordinates": [148.2955, -34.3135]}, "properties": {"suburb": "YOUNG", "sales": 292, "median_price": 430000}}, {"type": "Feature", "geometry": {"type": "Point", "coordinates": [151.1524, -33.8535]}, "properties": {"suburb": "DRUMMOYNE", "sales": 291, "median_price": 1805000}}, {"type": "Feature", "geometry": {"type": "Point", "coordinates": [151.0715, -34.0321]}, "properties": {"suburb": "KIRRAWEE", "sales": 291, "median_price": 1315000}}, {"type": "Feature", "geometry": {"type": "Point", "coordinates": [151.0165, -33.9594]}, "properties": {"suburb": "REVESBY", "sales": 291, "median_price": 1390000}}, {"type": "Feature", "geometry": {"type": "Point", "coordinates": [151.1414, -34.0483]}, "properties": {"suburb": "WOOLOOWARE", "sales": 290, "median_price": 950000}}, {"type": "Feature", "geometry": {"type": "Point", "coordinates": [151.2252, -33.8681]}, "properties": {"suburb": "POTTS POINT", "sales": 286, "median_price": 882000}}, {"type": "Feature", "geometry": {"type": "Point", "coordinates": [151.2277, -33.8719]}, "properties": {"suburb": "ELIZABETH BAY", "sales": 286, "median_price": 1295000}}, {"type": "Feature", "geometry": {"type": "Point", "coordinates": [151.0318, -33.9563]}, "properties": {"suburb": "PADSTOW", "sales": 285, "median_price": 1400000}}, {"type": "Feature", "geometry": {"type": "Point", "coordinates": [151.5815, -32.7467]}, "properties": {"suburb": "EAST MAITLAND", "sales": 284, "median_price": 675000}}, {"type": "Feature", "geometry": {"type": "Point", "coordinates": [151.1659, -33.8165]}, "properties": {"suburb": "LANE COVE", "sales": 284, "median_price": 1070000}}, {"type": "Feature", "geometry": {"type": "Point", "coordinates": [151.1261, -33.8256]}, "properties": {"suburb": "GLADESVILLE", "sales": 284, "median_price": 1200000}}, {"type": "Feature", "geometry": {"type": "Point", "coordinates": [151.1925, -33.824]}, "properties": {"suburb": "ST LEONARDS", "sales": 283, "median_price": 1170000}}, {"type": "Feature", "geometry": {"type": "Point", "coordinates": [151.2712, -33.8769]}, "properties": {"suburb": "ROSE BAY", "sales": 283, "median_price": 3100000}}, {"type": "Feature", "geometry": {"type": "Point", "coordinates": [151.1939, -33.8697]}, "properties": {"suburb": "PYRMONT", "sales": 282, "median_price": 1200000}}, {"type": "Feature", "geometry": {"type": "Point", "coordinates": [151.4728, -33.2408]}, "properties": {"suburb": "WOONGARRAH", "sales": 281, "median_price": 745000}}, {"type": "Feature", "geometry": {"type": "Point", "coordinates": [147.3568, -35.1172]}, "properties": {"suburb": "WAGGA WAGGA", "sales": 280, "median_price": 638000}}, {"type": "Feature", "geometry": {"type": "Point", "coordinates": [148.6912, -33.8347]}, "properties": {"suburb": "COWRA", "sales": 280, "median_price": 445000}}, {"type": "Feature", "geometry": {"type": "Point", "coordinates": [150.7706, -34.1313]}, "properties": {"suburb": "GILEAD", "sales": 280, "median_price": 580000}}, {"type": "Feature", "geometry": {"type": "Point", "coordinates": [150.775, -34.5707]}, "properties": {"suburb": "ALBION PARK", "sales": 276, "median_price": 830000}}, {"type": "Feature", "geometry": {"type": "Point", "coordinates": [153.3591, -29.4378]}, "properties": {"suburb": "YAMBA", "sales": 276, "median_price": 802989}}, {"type": "Feature", "geometry": {"type": "Point", "coordinates": [151.1214, -34.055]}, "properties": {"suburb": "CARINGBAH SOUTH", "sales": 276, "median_price": 2150000}}, {"type": "Feature", "geometry": {"type": "Point", "coordinates": [153.5749, -28.255]}, "properties": {"suburb": "KINGSCLIFF", "sales": 271, "median_price": 1430000}}, {"type": "Feature", "geometry": {"type": "Point", "coordinates": [151.2622, -33.8952]}, "properties": {"suburb": "BONDI", "sales": 271, "median_price": 1635000}}, {"type": "Feature", "geometry": {"type": "Point", "coordinates": [151.0108, -33.9041]}, "properties": {"suburb": "YAGOONA", "sales": 269, "median_price": 1060000}}, {"type": "Feature", "geometry": {"type": "Point", "coordinates": [151.7519, -32.943]}, "properties": {"suburb": "MEREWETHER", "sales": 269, "median_price": 1450000}}, {"type": "Feature", "geometry": {"type": "Point", "coordinates": [151.1513, -33.932]}, "properties": {"suburb": "WOLLI CREEK", "sales": 265, "median_price": 770000}}, {"type": "Feature", "geometry": {"type": "Point", "coordinates": [151.6388, -32.7769]}, "properties": {"suburb": "THORNTON", "sales": 265, "median_price": 750000}}, {"type": "Feature", "geometry": {"type": "Point", "coordinates": [151.1819, -33.889]}, "properties": {"suburb": "CAMPERDOWN", "sales": 262, "median_price": 961000}}, {"type": "Feature", "geometry": {"type": "Point", "coordinates": [149.6042, -33.4187]}, "properties": {"suburb": "KELSO", "sales": 261, "median_price": 708000}}, {"type": "Feature", "geometry": {"type": "Point", "coordinates": [151.3032, -33.6731]}, "properties": {"suburb": "MONA VALE", "sales": 260, "median_price": 2133000}}, {"type": "Feature", "geometry": {"type": "Point", "coordinates": [150.8143, -34.0846]}, "properties": {"suburb": "BRADBURY", "sales": 260, "median_price": 790000}}, {"type": "Feature", "geometry": {"type": "Point", "coordinates": [152.1431, -32.7237]}, "properties": {"suburb": "NELSON BAY", "sales": 256, "median_price": 835000}}, {"type": "Feature", "geometry": {"type": "Point", "coordinates": [151.4381, -33.44]}, "properties": {"suburb": "TERRIGAL", "sales": 256, "median_price": 1500000}}, {"type": "Feature", "geometry": {"type": "Point", "coordinates": [151.1285, -33.9982]}, "properties": {"suburb": "SANS SOUCI", "sales": 256, "median_price": 1240000}}, {"type": "Feature", "geometry": {"type": "Point", "coordinates": [150.75, -34.5766]}, "properties": {"suburb": "TULLIMBAR", "sales": 255, "median_price": 785000}}, {"type": "Feature", "geometry": {"type": "Point", "coordinates": [153.0456, -28.8647]}, "properties": {"suburb": "CASINO", "sales": 253, "median_price": 460000}}, {"type": "Feature", "geometry": {"type": "Point", "coordinates": [151.09, -33.9218]}, "properties": {"suburb": "BELMORE", "sales": 251, "median_price": 749500}}, {"type": "Feature", "geometry": {"type": "Point", "coordinates": [150.7901, -33.7952]}, "properties": {"suburb": "ST CLAIR", "sales": 250, "median_price": 995000}}, {"type": "Feature", "geometry": {"type": "Point", "coordinates": [151.0562, -33.81]}, "properties": {"suburb": "ERMINGTON", "sales": 250, "median_price": 1710000}}, {"type": "Feature", "geometry": {"type": "Point", "coordinates": [150.7752, -34.0294]}, "properties": {"suburb": "GREGORY HILLS", "sales": 249, "median_price": 955000}}, {"type": "Feature", "geometry": {"type": "Point", "coordinates": [151.3206, -33.4936]}, "properties": {"suburb": "WOY WOY", "sales": 249, "median_price": 850000}}, {"type": "Feature", "geometry": {"type": "Point", "coordinates": [150.8621, -34.5906]}, "properties": {"suburb": "SHELL COVE", "sales": 249, "median_price": 1300000}}, {"type": "Feature", "geometry": {"type": "Point", "coordinates": [151.198, -33.8874]}, "properties": {"suburb": "CHIPPENDALE", "sales": 248, "median_price": 855000}}, {"type": "Feature", "geometry": {"type": "Point", "coordinates": [151.1244, -33.7968]}, "properties": {"suburb": "NORTH RYDE", "sales": 247, "median_price": 2121000}}, {"type": "Feature", "geometry": {"type": "Point", "coordinates": [151.1775, -33.8588]}, "properties": {"suburb": "BALMAIN", "sales": 247, "median_price": 2250000}}, {"type": "Feature", "geometry": {"type": "Point", "coordinates": [150.9044, -33.9504]}, "properties": {"suburb": "CASULA", "sales": 247, "median_price": 955000}}, {"type": "Feature", "geometry": {"type": "Point", "coordinates": [151.622, -32.9237]}, "properties": {"suburb": "EDGEWORTH", "sales": 243, "median_price": 577500}}, {"type": "Feature", "geometry": {"type": "Point", "coordinates": [150.7928, -34.4939]}, "properties": {"suburb": "DAPTO", "sales": 241, "median_price": 780000}}, {"type": "Feature", "geometry": {"type": "Point", "coordinates": [151.0565, -33.9639]}, "properties": {"suburb": "PEAKHURST", "sales": 239, "median_price": 1300000}}, {"type": "Feature", "geometry": {"type": "Point", "coordinates": [151.2187, -33.9146]}, "properties": {"suburb": "KENSINGTON", "sales": 238, "median_price": 1175000}}, {"type": "Feature", "geometry": {"type": "Point", "coordinates": [153.5548, -28.8682]}, "properties": {"suburb": "BALLINA", "sales": 237, "median_price": 775000}}, {"type": "Feature", "geometry": {"type": "Point", "coordinates": [153.6122, -28.6434]}, "properties": {"suburb": "BYRON BAY", "sales": 236, "median_price": 1700000}}, {"type": "Feature", "geometry": {"type": "Point", "coordinates": [151.0857, -33.965]}, "properties": {"suburb": "PENSHURST", "sales": 236, "median_price": 755000}}, {"type": "Feature", "geometry": {"type": "Point", "coordinates": [150.6022, -34.8786]}, "properties": {"suburb": "NOWRA", "sales": 236, "median_price": 635000}}, {"type": "Feature", "geometry": {"type": "Point", "coordinates": [151.1457, -33.9392]}, "properties": {"suburb": "ARNCLIFFE", "sales": 236, "median_price": 960000}}, {"type": "Feature", "geometry": {"type": "Point", "coordinates": [144.9627, -35.5315]}, "properties": {"suburb": "DENILIQUIN", "sales": 234, "median_price": 325000}}, {"type": "Feature", "geometry": {"type": "Point", "coordinates": [151.1029, -33.7801]}, "properties": {"suburb": "MARSFIELD", "sales": 234, "median_price": 1251000}}, {"type": "Feature", "geometry": {"type": "Point", "coordinates": [151.4505, -32.6999]}, "properties": {"suburb": "LOCHINVAR", "sales": 234, "median_price": 394900}}, {"type": "Feature", "geometry": {"type": "Point", "coordinates": [151.2304, -33.9262]}, "properties": {"suburb": "KINGSFORD", "sales": 233, "median_price": 1200000}}, {"type": "Feature", "geometry": {"type": "Point", "coordinates": [152.5001, -32.1763]}, "properties": {"suburb": "TUNCURRY", "sales": 233, "median_price": 615000}}, {"type": "Feature", "geometry": {"type": "Point", "coordinates": [151.1308, -33.7332]}, "properties": {"suburb": "TURRAMURRA", "sales": 232, "median_price": 2400000}}, {"type": "Feature", "geometry": {"type": "Point", "coordinates": [151.0413, -33.741]}, "properties": {"suburb": "WEST PENNANT HILLS", "sales": 231, "median_price": 2425000}}, {"type": "Feature", "geometry": {"type": "Point", "coordinates": [150.7122, -34.0682]}, "properties": {"suburb": "SPRING FARM", "sales": 230, "median_price": 985000}}, {"type": "Feature", "geometry": {"type": "Point", "coordinates": [146.4064, -34.5522]}, "properties": {"suburb": "LEETON", "sales": 230, "median_price": 376000}}, {"type": "Feature", "geometry": {"type": "Point", "coordinates": [151.1993, -33.8071]}, "properties": {"suburb": "WILLOUGHBY", "sales": 229, "median_price": 1670000}}, {"type": "Feature", "geometry": {"type": "Point", "coordinates": [151.1567, -33.7655]}, "properties": {"suburb": "KILLARA", "sales": 229, "median_price": 1350000}}, {"type": "Feature", "geometry": {"type": "Point", "coordinates": [150.9094, -33.7156]}, "properties": {"suburb": "THE PONDS", "sales": 229, "median_price": 1562500}}, {"type": "Feature", "geometry": {"type": "Point", "coordinates": [151.4539, -33.0766]}, "properties": {"suburb": "COORANBONG", "sales": 228, "median_price": 775000}}, {"type": "Feature", "geometry": {"type": "Point", "coordinates": [151.0071, -33.7925]}, "properties": {"suburb": "NORTH PARRAMATTA", "sales": 227, "median_price": 691000}}, {"type": "Feature", "geometry": {"type": "Point", "coordinates": [151.1645, -33.7787]}, "properties": {"suburb": "LINDFIELD", "sales": 226, "median_price": 2605000}}, {"type": "Feature", "geometry": {"type": "Point", "coordinates": [150.7096, -33.7147]}, "properties": {"suburb": "CRANEBROOK", "sales": 226, "median_price": 905000}}, {"type": "Feature", "geometry": {"type": "Point", "coordinates": [150.8547, -34.6704]}, "properties": {"suburb": "KIAMA", "sales": 226, "median_price": 1200000}}, {"type": "Feature", "geometry": {"type": "Point", "coordinates": [151.1413, -33.7452]}, "properties": {"suburb": "PYMBLE", "sales": 225, "median_price": 2940000}}, {"type": "Feature", "geometry": {"type": "Point", "coordinates": [151.1864, -33.8791]}, "properties": {"suburb": "GLEBE", "sales": 225, "median_price": 1511000}}, {"type": "Feature", "geometry": {"type": "Point", "coordinates": [151.1256, -33.9241]}, "properties": {"suburb": "EARLWOOD", "sales": 225, "median_price": 2011000}}, {"type": "Feature", "geometry": {"type": "Point", "coordinates": [153.5382, -28.1978]}, "properties": {"suburb": "TWEED HEADS SOUTH", "sales": 224, "median_price": 735000}}, {"type": "Feature", "geometry": {"type": "Point", "coordinates": [149.8416, -29.463]}, "properties": {"suburb": "MOREE", "sales": 223, "median_price": 315000}}, {"type": "Feature", "geometry": {"type": "Point", "coordinates": [151.1042, -33.7108]}, "properties": {"suburb": "WAITARA", "sales": 222, "median_price": 750000}}, {"type": "Feature", "geometry": {"type": "Point", "coordinates": [150.9406, -33.8535]}, "properties": {"suburb": "SMITHFIELD", "sales": 222, "median_price": 1181000}}, {"type": "Feature", "geometry": {"type": "Point", "coordinates": [151.1719, -33.8787]}, "properties": {"suburb": "ANNANDALE", "sales": 222, "median_price": 1980000}}, {"type": "Feature", "geometry": {"type": "Point", "coordinates": [149.5816, -33.4174]}, "properties": {"suburb": "BATHURST", "sales": 222, "median_price": 600000}}, {"type": "Feature", "geometry": {"type": "Point", "coordinates": [151.4763, -33.2492]}, "properties": {"suburb": "HAMLYN TERRACE", "sales": 221, "median_price": 852500}}, {"type": "Feature", "geometry": {"type": "Point", "coordinates": [151.3305, -33.6345]}, "properties": {"suburb": "AVALON BEACH", "sales": 221, "median_price": 2550000}}, {"type": "Feature", "geometry": {"type": "Point", "coordinates": [151.2908, -33.6856]}, "properties": {"suburb": "WARRIEWOOD", "sales": 218, "median_price": 1780000}}, {"type": "Feature", "geometry": {"type": "Point", "coordinates": [151.1041, -33.8577]}, "properties": {"suburb": "CONCORD", "sales": 218, "median_price": 2480000}}, {"type": "Feature", "geometry": {"type": "Point", "coordinates": [151.1144, -33.9165]}, "properties": {"suburb": "CANTERBURY", "sales": 217, "median_price": 750000}}, {"type": "Feature", "geometry": {"type": "Point", "coordinates": [150.9954, -33.7891]}, "properties": {"suburb": "NORTHMEAD", "sales": 216, "median_price": 1025000}}, {"type": "Feature", "geometry": {"type": "Point", "coordinates": [151.212, -33.8222]}, "properties": {"suburb": "CAMMERAY", "sales": 216, "median_price": 1560000}}, {"type": "Feature", "geometry": {"type": "Point", "coordinates": [151.0757, -33.969]}, "properties": {"suburb": "MORTDALE", "sales": 214, "median_price": 818500}}, {"type": "Feature", "geometry": {"type": "Point", "coordinates": [150.999, -33.9563]}, "properties": {"suburb": "PANANIA", "sales": 214, "median_price": 1416000}}, {"type": "Feature", "geometry": {"type": "Point", "coordinates": [150.9149, -34.3493]}, "properties": {"suburb": "WOONONA", "sales": 213, "median_price": 1200000}}, {"type": "Feature", "geometry": {"type": "Point", "coordinates": [151.1966, -33.8805]}, "properties": {"suburb": "ULTIMO", "sales": 212, "median_price": 755000}}, {"type": "Feature", "geometry": {"type": "Point", "coordinates": [150.7362, -34.0293]}, "properties": {"suburb": "HARRINGTON PARK", "sales": 212, "median_price": 1419500}}, {"type": "Feature", "geometry": {"type": "Point", "coordinates": [150.7645, -33.9933]}, "properties": {"suburb": "CATHERINE FIELD", "sales": 211, "median_price": 1045000}}, {"type": "Feature", "geometry": {"type": "Point", "coordinates": [148.0017, -33.384]}, "properties": {"suburb": "FORBES", "sales": 210, "median_price": 445000}}, {"type": "Feature", "geometry": {"type": "Point", "coordinates": [151.0455, -33.7207]}, "properties": {"suburb": "CHERRYBROOK", "sales": 208, "median_price": 2300000}}, {"type": "Feature", "geometry": {"type": "Point", "coordinates": [150.624, -35.1049]}, "properties": {"suburb": "SANCTUARY POINT", "sales": 208, "median_price": 670000}}, {"type": "Feature", "geometry": {"type": "Point", "coordinates": [151.4704, -33.3817]}, "properties": {"suburb": "BATEAU BAY", "sales": 208, "median_price": 1075000}}, {"type": "Feature", "geometry": {"type": "Point", "coordinates": [151.7106, -32.9293]}, "properties": {"suburb": "NEW LAMBTON", "sales": 207, "median_price": 1001000}}, {"type": "Feature", "geometry": {"type": "Point", "coordinates": [151.6139, -32.9107]}, "properties": {"suburb": "CAMERON PARK", "sales": 206, "median_price": 870000}}, {"type": "Feature", "geometry": {"type": "Point", "coordinates": [152.9858, -30.6375]}, "properties": {"suburb": "NAMBUCCA HEADS", "sales": 204, "median_price": 579000}}]}